start=new Date('2022-05-14T00:00:00.000Z').valueOf();
sats=[{"EPOCH":"2022-05-13T22:00:00.999936","MEAN_ANOMALY":"175.7870","SEMIMAJOR_AXIS":"6728.029","INCLINATION":"53.2148","RCS_SIZE":"LARGE","CLASSIFICATION_TYPE":"U","DECAY_DATE":null,"ELEMENT_SET_NO":"999","OBJECT_TYPE":"PAYLOAD","REV_AT_EPOCH":"130","MEAN_MOTION_DDOT":"0.0000000000000","COUNTRY_CODE":"US","SITE":"AFETR","PERIOD":"91.536","GP_ID":"203481378","MEAN_MOTION":"15.73153049","OBJECT_NAME":"STARLINK-3798","OBJECT_ID":"2022-045AS","PERIAPSIS":"349.065","ECCENTRICITY":"0.00012320","NORAD_CAT_ID":"52371","BSTAR":"0.00019001000000","APOAPSIS":"350.723","TLE_LINE1":"1 52371U 22045AS  22133.91667824  .00026076  00000-0  19001-3 0  9990","ARG_OF_PERICENTER":"101.3052","EPHEMERIS_TYPE":"0","FILE":"3444395","REF_FRAME":"TEME","LAUNCH_DATE":"2022-04-29","TIME_SYSTEM":"UTC","RA_OF_ASC_NODE":"6.8028","MEAN_ELEMENT_THEORY":"SGP4","TLE_LINE2":"2 52371  53.2148   6.8028 0001232 101.3052 175.7870 15.73153049  1304","MEAN_MOTION_DOT":"0.00026076","CENTER_NAME":"EARTH"},{"FILE":"3444289","ARG_OF_PERICENTER":"94.3202","TLE_LINE1":"1 52372U 22045AT  22133.91667824 -.00003168  00000-0 -18184-4 0  9992","EPHEMERIS_TYPE":"0","APOAPSIS":"350.601","RA_OF_ASC_NODE":"6.7983","REF_FRAME":"TEME","LAUNCH_DATE":"2022-04-29","TIME_SYSTEM":"UTC","MEAN_ELEMENT_THEORY":"SGP4","CENTER_NAME":"EARTH","MEAN_MOTION_DOT":"-0.00003168","TLE_LINE2":"2 52372  53.2147   6.7983 0001161  94.3202 184.5198 15.73178907  4744","RCS_SIZE":"LARGE","SEMIMAJOR_AXIS":"6727.955","INCLINATION":"53.2147","EPOCH":"2022-05-13T22:00:00.999936","MEAN_ANOMALY":"184.5198","SITE":"AFETR","PERIOD":"91.534","GP_ID":"203454586","MEAN_MOTION_DDOT":"0.0000000000000","COUNTRY_CODE":"US","OBJECT_TYPE":"PAYLOAD","REV_AT_EPOCH":"474","ELEMENT_SET_NO":"999","CLASSIFICATION_TYPE":"U","DECAY_DATE":null,"PERIAPSIS":"349.039","OBJECT_ID":"2022-045AT","OBJECT_NAME":"STARLINK-3796","MEAN_MOTION":"15.73178907","BSTAR":"-0.00001818400000","NORAD_CAT_ID":"52372","ECCENTRICITY":"0.00011610"},{"TIME_SYSTEM":"UTC","LAUNCH_DATE":"2022-04-29","REF_FRAME":"TEME","RA_OF_ASC_NODE":"6.7966","APOAPSIS":"350.662","FILE":"3444284","TLE_LINE1":"1 52373U 22045AU  22133.91667824 -.00005189  00000-0 -32627-4 0  9996","ARG_OF_PERICENTER":"107.3484","EPHEMERIS_TYPE":"0","TLE_LINE2":"2 52373  53.2132   6.7966 0001205 107.3484 172.7272 15.73167883  4750","MEAN_MOTION_DOT":"-0.00005189","CENTER_NAME":"EARTH","MEAN_ELEMENT_THEORY":"SGP4","ELEMENT_SET_NO":"999","OBJECT_TYPE":"PAYLOAD","REV_AT_EPOCH":"475","DECAY_DATE":null,"CLASSIFICATION_TYPE":"U","GP_ID":"203454047","PERIOD":"91.535","SITE":"AFETR","MEAN_MOTION_DDOT":"0.0000000000000","COUNTRY_CODE":"US","INCLINATION":"53.2132","SEMIMAJOR_AXIS":"6727.987","MEAN_ANOMALY":"172.7272","EPOCH":"2022-05-13T22:00:00.999936","RCS_SIZE":"LARGE","ECCENTRICITY":"0.00012050","NORAD_CAT_ID":"52373","BSTAR":"-0.00003262700000","OBJECT_ID":"2022-045AU","OBJECT_NAME":"STARLINK-3550","MEAN_MOTION":"15.73167883","PERIAPSIS":"349.041"},{"SEMIMAJOR_AXIS":"6728.048","INCLINATION":"53.2143","EPOCH":"2022-05-13T22:00:00.999936","MEAN_ANOMALY":"177.0534","RCS_SIZE":"LARGE","OBJECT_TYPE":"PAYLOAD","ELEMENT_SET_NO":"999","REV_AT_EPOCH":"130","CLASSIFICATION_TYPE":"U","DECAY_DATE":null,"SITE":"AFETR","GP_ID":"203480714","PERIOD":"91.536","MEAN_MOTION_DDOT":"0.0000000000000","COUNTRY_CODE":"US","OBJECT_NAME":"STARLINK-3762","OBJECT_ID":"2022-045AV","MEAN_MOTION":"15.73146262","PERIAPSIS":"349.002","NORAD_CAT_ID":"52374","ECCENTRICITY":"0.00013540","BSTAR":"0.00026245000000","APOAPSIS":"350.824","FILE":"3444395","ARG_OF_PERICENTER":"102.4086","TLE_LINE1":"1 52374U 22045AV  22133.91667824  .00036288  00000-0  26245-3 0  9997","EPHEMERIS_TYPE":"0","REF_FRAME":"TEME","TIME_SYSTEM":"UTC","LAUNCH_DATE":"2022-04-29","RA_OF_ASC_NODE":"6.7971","MEAN_ELEMENT_THEORY":"SGP4","TLE_LINE2":"2 52374  53.2143   6.7971 0001354 102.4086 177.0534 15.73146262  1303","CENTER_NAME":"EARTH","MEAN_MOTION_DOT":"0.00036288"},{"RA_OF_ASC_NODE":"6.8000","REF_FRAME":"TEME","TIME_SYSTEM":"UTC","LAUNCH_DATE":"2022-04-29","FILE":"3444284","TLE_LINE1":"1 52375U 22045AW  22133.91667824 -.00002542  00000-0 -13707-4 0  9996","ARG_OF_PERICENTER":"97.1554","EPHEMERIS_TYPE":"0","APOAPSIS":"350.448","MEAN_MOTION_DOT":"-0.00002542","CENTER_NAME":"EARTH","TLE_LINE2":"2 52375  53.2132   6.8000 0001001  97.1554 181.1099 15.73194943  4758","MEAN_ELEMENT_THEORY":"SGP4","SITE":"AFETR","GP_ID":"203454546","PERIOD":"91.533","COUNTRY_CODE":"US","MEAN_MOTION_DDOT":"0.0000000000000","OBJECT_TYPE":"PAYLOAD","ELEMENT_SET_NO":"999","REV_AT_EPOCH":"475","CLASSIFICATION_TYPE":"U","DECAY_DATE":null,"RCS_SIZE":"LARGE","SEMIMAJOR_AXIS":"6727.910","INCLINATION":"53.2132","EPOCH":"2022-05-13T22:00:00.999936","MEAN_ANOMALY":"181.1099","BSTAR":"-0.00001370700000","NORAD_CAT_ID":"52375","ECCENTRICITY":"0.00010010","PERIAPSIS":"349.101","OBJECT_ID":"2022-045AW","OBJECT_NAME":"STARLINK-3785","MEAN_MOTION":"15.73194943"},{"SEMIMAJOR_AXIS":"6728.071","INCLINATION":"53.2142","EPOCH":"2022-05-13T22:00:00.999936","MEAN_ANOMALY":"180.8838","RCS_SIZE":"LARGE","REV_AT_EPOCH":"130","OBJECT_TYPE":"PAYLOAD","ELEMENT_SET_NO":"999","CLASSIFICATION_TYPE":"U","DECAY_DATE":null,"SITE":"AFETR","GP_ID":"203481154","PERIOD":"91.537","COUNTRY_CODE":"US","MEAN_MOTION_DDOT":"0.0000000000000","OBJECT_NAME":"STARLINK-3767","OBJECT_ID":"2022-045AX","MEAN_MOTION":"15.73138261","PERIAPSIS":"349.250","NORAD_CAT_ID":"52376","ECCENTRICITY":"0.00010200","BSTAR":"0.00025689000000","APOAPSIS":"350.622","FILE":"3444395","TLE_LINE1":"1 52376U 22045AX  22133.91667824  .00035490  00000-0  25689-3 0  9994","ARG_OF_PERICENTER":"100.3351","EPHEMERIS_TYPE":"0","REF_FRAME":"TEME","TIME_SYSTEM":"UTC","LAUNCH_DATE":"2022-04-29","RA_OF_ASC_NODE":"6.7935","MEAN_ELEMENT_THEORY":"SGP4","TLE_LINE2":"2 52376  53.2142   6.7935 0001020 100.3351 180.8838 15.73138261  1305","MEAN_MOTION_DOT":"0.00035490","CENTER_NAME":"EARTH"},{"PERIAPSIS":"348.930","MEAN_MOTION":"15.73147758","OBJECT_ID":"2022-045AY","OBJECT_NAME":"STARLINK-3805","BSTAR":"0.00020375000000","ECCENTRICITY":"0.00014560","NORAD_CAT_ID":"52377","RCS_SIZE":"LARGE","MEAN_ANOMALY":"189.0012","EPOCH":"2022-05-13T22:00:00.999936","INCLINATION":"53.2148","SEMIMAJOR_AXIS":"6728.044","COUNTRY_CODE":"US","MEAN_MOTION_DDOT":"0.0000000000000","PERIOD":"91.536","GP_ID":"203454048","SITE":"AFETR","DECAY_DATE":null,"CLASSIFICATION_TYPE":"U","REV_AT_EPOCH":"474","OBJECT_TYPE":"PAYLOAD","ELEMENT_SET_NO":"999","MEAN_ELEMENT_THEORY":"SGP4","CENTER_NAME":"EARTH","MEAN_MOTION_DOT":"0.00028007","TLE_LINE2":"2 52377  53.2148   6.7954 0001456  91.6054 189.0012 15.73147758  4745","TLE_LINE1":"1 52377U 22045AY  22133.91667824  .00028007  00000-0  20375-3 0  9998","ARG_OF_PERICENTER":"91.6054","EPHEMERIS_TYPE":"0","FILE":"3444284","APOAPSIS":"350.889","RA_OF_ASC_NODE":"6.7954","LAUNCH_DATE":"2022-04-29","TIME_SYSTEM":"UTC","REF_FRAME":"TEME"},{"APOAPSIS":"350.664","TLE_LINE1":"1 52378U 22045AZ  22133.91667824  .00031651  00000-0  22970-3 0  9991","EPHEMERIS_TYPE":"0","ARG_OF_PERICENTER":"100.1445","FILE":"3444395","LAUNCH_DATE":"2022-04-29","TIME_SYSTEM":"UTC","REF_FRAME":"TEME","RA_OF_ASC_NODE":"6.7913","MEAN_ELEMENT_THEORY":"SGP4","TLE_LINE2":"2 52378  53.2148   6.7913 0001075 100.1445 182.2371 15.73136829  1307","MEAN_MOTION_DOT":"0.00031651","CENTER_NAME":"EARTH","MEAN_ANOMALY":"182.2371","EPOCH":"2022-05-13T22:00:00.999936","INCLINATION":"53.2148","SEMIMAJOR_AXIS":"6728.075","RCS_SIZE":"LARGE","DECAY_DATE":null,"CLASSIFICATION_TYPE":"U","REV_AT_EPOCH":"130","OBJECT_TYPE":"PAYLOAD","ELEMENT_SET_NO":"999","MEAN_MOTION_DDOT":"0.0000000000000","COUNTRY_CODE":"US","GP_ID":"203481059","PERIOD":"91.537","SITE":"AFETR","MEAN_MOTION":"15.73136829","OBJECT_NAME":"STARLINK-3806","OBJECT_ID":"2022-045AZ","PERIAPSIS":"349.217","ECCENTRICITY":"0.00010750","NORAD_CAT_ID":"52378","BSTAR":"0.00022970000000"},{"MEAN_ELEMENT_THEORY":"SGP4","MEAN_MOTION_DOT":"0.00043804","CENTER_NAME":"EARTH","TLE_LINE2":"2 52379  53.2145   6.7927 0001456 101.8723 179.9686 15.73161423  1300","EPHEMERIS_TYPE":"0","TLE_LINE1":"1 52379U 22045BA  22133.91667824  .00043804  00000-0  31541-3 0  9999","ARG_OF_PERICENTER":"101.8723","FILE":"3444395","APOAPSIS":"350.850","RA_OF_ASC_NODE":"6.7927","TIME_SYSTEM":"UTC","LAUNCH_DATE":"2022-04-29","REF_FRAME":"TEME","PERIAPSIS":"348.891","MEAN_MOTION":"15.73161423","OBJECT_NAME":"STARLINK-3800","OBJECT_ID":"2022-045BA","BSTAR":"0.00031541000000","NORAD_CAT_ID":"52379","ECCENTRICITY":"0.00014560","RCS_SIZE":"LARGE","MEAN_ANOMALY":"179.9686","EPOCH":"2022-05-13T22:00:00.999936","INCLINATION":"53.2145","SEMIMAJOR_AXIS":"6728.005","COUNTRY_CODE":"US","MEAN_MOTION_DDOT":"0.0000000000000","PERIOD":"91.535","GP_ID":"203481379","SITE":"AFETR","DECAY_DATE":null,"CLASSIFICATION_TYPE":"U","OBJECT_TYPE":"PAYLOAD","REV_AT_EPOCH":"130","ELEMENT_SET_NO":"999"},{"APOAPSIS":"350.994","EPHEMERIS_TYPE":"0","TLE_LINE1":"1 52380U 22045BB  22133.91667824  .00017771  00000-0  13114-3 0  9991","ARG_OF_PERICENTER":"103.3192","FILE":"3444395","LAUNCH_DATE":"2022-04-29","TIME_SYSTEM":"UTC","REF_FRAME":"TEME","RA_OF_ASC_NODE":"6.7875","MEAN_ELEMENT_THEORY":"SGP4","TLE_LINE2":"2 52380  53.2146   6.7875 0001547 103.3192 180.9358 15.73132239  1304","CENTER_NAME":"EARTH","MEAN_MOTION_DOT":"0.00017771","MEAN_ANOMALY":"180.9358","EPOCH":"2022-05-13T22:00:00.999936","INCLINATION":"53.2146","SEMIMAJOR_AXIS":"6728.088","RCS_SIZE":"LARGE","DECAY_DATE":null,"CLASSIFICATION_TYPE":"U","ELEMENT_SET_NO":"999","OBJECT_TYPE":"PAYLOAD","REV_AT_EPOCH":"130","COUNTRY_CODE":"US","MEAN_MOTION_DDOT":"0.0000000000000","GP_ID":"203480809","PERIOD":"91.537","SITE":"AFETR","MEAN_MOTION":"15.73132239","OBJECT_ID":"2022-045BB","OBJECT_NAME":"STARLINK-3793","PERIAPSIS":"348.913","ECCENTRICITY":"0.00015470","NORAD_CAT_ID":"52380","BSTAR":"0.00013114000000"}];
